[{"OBJECT_NAME":"QIANFAN-1","OBJECT_ID":"2024-140A","EPOCH":"2026-03-04T03:54:34.419168","MEAN_MOTION":13.50999267,"ECCENTRICITY":0.0017237,"INCLINATION":88.9719,"RA_OF_ASC_NODE":290.8595,"ARG_OF_PERICENTER":345.7585,"MEAN_ANOMALY":14.3078,"EPHEMERIS_TYPE":0,"CLASSIFICATION_TYPE":"U","NORAD_CAT_ID":60379,"ELEMENT_SET_NO":999,"REV_AT_EPOCH":7834,"BSTAR":0.00014241,"MEAN_MOTION_DOT":1.04e-6,"MEAN_MOTION_DDOT":0},{"OBJECT_NAME":"QIANFAN-2","OBJECT_ID":"2024-140B","EPOCH":"2026-03-04T02:49:17.594400","MEAN_MOTION":13.51003328,"ECCENTRICITY":0.0011725,"INCLINATION":88.9706,"RA_OF_ASC_NODE":290.6922,"ARG_OF_PERICENTER":319.1461,"MEAN_ANOMALY":40.881,"EPHEMERIS_TYPE":0,"CLASSIFICATION_TYPE":"U","NORAD_CAT_ID":60380,"ELEMENT_SET_NO":999,"REV_AT_EPOCH":7839,"BSTAR":0.00013214,"MEAN_MOTION_DOT":9.7e-7,"MEAN_MOTION_DDOT":0},{"OBJECT_NAME":"QIANFAN-3","OBJECT_ID":"2024-140C","EPOCH":"2026-03-04T03:01:02.307360","MEAN_MOTION":13.50999315,"ECCENTRICITY":0.0013216,"INCLINATION":88.9698,"RA_OF_ASC_NODE":290.8179,"ARG_OF_PERICENTER":331.9011,"MEAN_ANOMALY":28.1426,"EPHEMERIS_TYPE":0,"CLASSIFICATION_TYPE":"U","NORAD_CAT_ID":60381,"ELEMENT_SET_NO":999,"REV_AT_EPOCH":7830,"BSTAR":0.00013545,"MEAN_MOTION_DOT":9.9e-7,"MEAN_MOTION_DDOT":0},{"OBJECT_NAME":"QIANFAN-4","OBJECT_ID":"2024-140D","EPOCH":"2026-03-04T02:25:38.385408","MEAN_MOTION":13.50999661,"ECCENTRICITY":0.0012036,"INCLINATION":88.9723,"RA_OF_ASC_NODE":290.7386,"ARG_OF_PERICENTER":321.8909,"MEAN_ANOMALY":38.139,"EPHEMERIS_TYPE":0,"CLASSIFICATION_TYPE":"U","NORAD_CAT_ID":60382,"ELEMENT_SET_NO":999,"REV_AT_EPOCH":7842,"BSTAR":0.00016933,"MEAN_MOTION_DOT":1.21e-6,"MEAN_MOTION_DDOT":0},{"OBJECT_NAME":"QIANFAN-5","OBJECT_ID":"2024-140E","EPOCH":"2026-03-04T03:36:46.807200","MEAN_MOTION":13.5100164,"ECCENTRICITY":0.0014814,"INCLINATION":88.9698,"RA_OF_ASC_NODE":290.8406,"ARG_OF_PERICENTER":342.7825,"MEAN_ANOMALY":17.2822,"EPHEMERIS_TYPE":0,"CLASSIFICATION_TYPE":"U","NORAD_CAT_ID":60383,"ELEMENT_SET_NO":999,"REV_AT_EPOCH":7829,"BSTAR":0.00013099,"MEAN_MOTION_DOT":9.7e-7,"MEAN_MOTION_DDOT":0},{"OBJECT_NAME":"QIANFAN-6","OBJECT_ID":"2024-140F","EPOCH":"2026-03-04T02:19:45.552864","MEAN_MOTION":13.51001433,"ECCENTRICITY":0.0012306,"INCLINATION":88.9724,"RA_OF_ASC_NODE":290.6142,"ARG_OF_PERICENTER":328.1457,"MEAN_ANOMALY":31.8948,"EPHEMERIS_TYPE":0,"CLASSIFICATION_TYPE":"U","NORAD_CAT_ID":60384,"ELEMENT_SET_NO":999,"REV_AT_EPOCH":7848,"BSTAR":0.00015758,"MEAN_MOTION_DOT":1.14e-6,"MEAN_MOTION_DDOT":0},{"OBJECT_NAME":"QIANFAN-7","OBJECT_ID":"2024-140G","EPOCH":"2026-03-04T02:46:01.365312","MEAN_MOTION":14.27771457,"ECCENTRICITY":0.0016459,"INCLINATION":88.9736,"RA_OF_ASC_NODE":284.1663,"ARG_OF_PERICENTER":127.6259,"MEAN_ANOMALY":232.6432,"EPHEMERIS_TYPE":0,"CLASSIFICATION_TYPE":"U","NORAD_CAT_ID":60385,"ELEMENT_SET_NO":999,"REV_AT_EPOCH":8200,"BSTAR":0.0001756,"MEAN_MOTION_DOT":4.49e-6,"MEAN_MOTION_DDOT":0},{"OBJECT_NAME":"QIANFAN-8","OBJECT_ID":"2024-140H","EPOCH":"2026-03-04T02:31:35.804064","MEAN_MOTION":13.51002931,"ECCENTRICITY":0.0015807,"INCLINATION":88.9726,"RA_OF_ASC_NODE":290.8521,"ARG_OF_PERICENTER":328.8247,"MEAN_ANOMALY":31.1965,"EPHEMERIS_TYPE":0,"CLASSIFICATION_TYPE":"U","NORAD_CAT_ID":60386,"ELEMENT_SET_NO":999,"REV_AT_EPOCH":7833,"BSTAR":0.00015367,"MEAN_MOTION_DOT":1.11e-6,"MEAN_MOTION_DDOT":0},{"OBJECT_NAME":"QIANFAN-9","OBJECT_ID":"2024-140J","EPOCH":"2026-03-04T03:42:40.846752","MEAN_MOTION":13.50997742,"ECCENTRICITY":0.0015502,"INCLINATION":88.9724,"RA_OF_ASC_NODE":290.9207,"ARG_OF_PERICENTER":328.5473,"MEAN_ANOMALY":31.475,"EPHEMERIS_TYPE":0,"CLASSIFICATION_TYPE":"U","NORAD_CAT_ID":60387,"ELEMENT_SET_NO":999,"REV_AT_EPOCH":7832,"BSTAR":0.00013082,"MEAN_MOTION_DOT":9.6e-7,"MEAN_MOTION_DDOT":0},{"OBJECT_NAME":"QIANFAN-10","OBJECT_ID":"2024-140K","EPOCH":"2026-03-04T03:48:25.996608","MEAN_MOTION":13.50996187,"ECCENTRICITY":0.0013358,"INCLINATION":88.9733,"RA_OF_ASC_NODE":290.2752,"ARG_OF_PERICENTER":304.8522,"MEAN_ANOMALY":55.1372,"EPHEMERIS_TYPE":0,"CLASSIFICATION_TYPE":"U","NORAD_CAT_ID":60388,"ELEMENT_SET_NO":999,"REV_AT_EPOCH":7845,"BSTAR":0.00014768,"MEAN_MOTION_DOT":1.07e-6,"MEAN_MOTION_DDOT":0},{"OBJECT_NAME":"QIANFAN-11","OBJECT_ID":"2024-140L","EPOCH":"2026-03-04T02:55:19.541280","MEAN_MOTION":13.5100296,"ECCENTRICITY":0.0013526,"INCLINATION":88.966,"RA_OF_ASC_NODE":290.8057,"ARG_OF_PERICENTER":329.2423,"MEAN_ANOMALY":30.7934,"EPHEMERIS_TYPE":0,"CLASSIFICATION_TYPE":"U","NORAD_CAT_ID":60389,"ELEMENT_SET_NO":999,"REV_AT_EPOCH":7810,"BSTAR":0.00013898,"MEAN_MOTION_DOT":1.02e-6,"MEAN_MOTION_DDOT":0},{"OBJECT_NAME":"QIANFAN-12","OBJECT_ID":"2024-140M","EPOCH":"2026-03-04T03:24:57.156480","MEAN_MOTION":13.51000686,"ECCENTRICITY":0.001261,"INCLINATION":88.9703,"RA_OF_ASC_NODE":290.8824,"ARG_OF_PERICENTER":338.3731,"MEAN_ANOMALY":21.6886,"EPHEMERIS_TYPE":0,"CLASSIFICATION_TYPE":"U","NORAD_CAT_ID":60390,"ELEMENT_SET_NO":999,"REV_AT_EPOCH":7823,"BSTAR":0.00015923,"MEAN_MOTION_DOT":1.15e-6,"MEAN_MOTION_DDOT":0},{"OBJECT_NAME":"QIANFAN-13","OBJECT_ID":"2024-140N","EPOCH":"2026-03-04T02:43:26.382720","MEAN_MOTION":13.51001118,"ECCENTRICITY":0.0012523,"INCLINATION":88.9715,"RA_OF_ASC_NODE":290.9954,"ARG_OF_PERICENTER":341.2965,"MEAN_ANOMALY":18.7724,"EPHEMERIS_TYPE":0,"CLASSIFICATION_TYPE":"U","NORAD_CAT_ID":60391,"ELEMENT_SET_NO":999,"REV_AT_EPOCH":7825,"BSTAR":0.00016104,"MEAN_MOTION_DOT":1.16e-6,"MEAN_MOTION_DDOT":0},{"OBJECT_NAME":"QIANFAN-14","OBJECT_ID":"2024-140P","EPOCH":"2026-03-04T03:18:53.486784","MEAN_MOTION":13.51000974,"ECCENTRICITY":0.0016176,"INCLINATION":88.9694,"RA_OF_ASC_NODE":290.873,"ARG_OF_PERICENTER":339.3185,"MEAN_ANOMALY":20.731,"EPHEMERIS_TYPE":0,"CLASSIFICATION_TYPE":"U","NORAD_CAT_ID":60392,"ELEMENT_SET_NO":999,"REV_AT_EPOCH":7826,"BSTAR":0.00016982,"MEAN_MOTION_DOT":1.22e-6,"MEAN_MOTION_DDOT":0},{"OBJECT_NAME":"QIANFAN-15","OBJECT_ID":"2024-140Q","EPOCH":"2026-03-04T03:30:56.793024","MEAN_MOTION":13.50998869,"ECCENTRICITY":0.0011571,"INCLINATION":88.9717,"RA_OF_ASC_NODE":290.848,"ARG_OF_PERICENTER":327.0925,"MEAN_ANOMALY":32.9504,"EPHEMERIS_TYPE":0,"CLASSIFICATION_TYPE":"U","NORAD_CAT_ID":60393,"ELEMENT_SET_NO":999,"REV_AT_EPOCH":7825,"BSTAR":0.00015452,"MEAN_MOTION_DOT":1.12e-6,"MEAN_MOTION_DDOT":0},{"OBJECT_NAME":"QIANFAN-16","OBJECT_ID":"2024-140R","EPOCH":"2026-03-04T03:12:56.396448","MEAN_MOTION":13.50997441,"ECCENTRICITY":0.0014242,"INCLINATION":88.9721,"RA_OF_ASC_NODE":290.9718,"ARG_OF_PERICENTER":344.268,"MEAN_ANOMALY":15.8027,"EPHEMERIS_TYPE":0,"CLASSIFICATION_TYPE":"U","NORAD_CAT_ID":60394,"ELEMENT_SET_NO":999,"REV_AT_EPOCH":7816,"BSTAR":0.00016577,"MEAN_MOTION_DOT":1.19e-6,"MEAN_MOTION_DDOT":0},{"OBJECT_NAME":"QIANFAN-17","OBJECT_ID":"2024-140S","EPOCH":"2026-03-04T03:07:10.849152","MEAN_MOTION":13.51004197,"ECCENTRICITY":0.001444,"INCLINATION":88.9732,"RA_OF_ASC_NODE":291.0271,"ARG_OF_PERICENTER":337.5885,"MEAN_ANOMALY":22.4633,"EPHEMERIS_TYPE":0,"CLASSIFICATION_TYPE":"U","NORAD_CAT_ID":60395,"ELEMENT_SET_NO":999,"REV_AT_EPOCH":7912,"BSTAR":0.00015845,"MEAN_MOTION_DOT":1.14e-6,"MEAN_MOTION_DDOT":0}]
