QIANFAN-1               
1 60379U 24140A   26063.16289837  .00000104  00000+0  14241-3 0  9996
2 60379  88.9719 290.8595 0017237 345.7585  14.3078 13.50999267 78340
QIANFAN-2               
1 60380U 24140B   26063.11756475  .00000097  00000+0  13214-3 0  9990
2 60380  88.9706 290.6922 0011725 319.1461  40.8810 13.51003328 78392
QIANFAN-3               
1 60381U 24140C   26063.12572115  .00000099  00000+0  13545-3 0  9998
2 60381  88.9698 290.8179 0013216 331.9011  28.1426 13.50999315 78301
QIANFAN-4               
1 60382U 24140D   26063.10113872  .00000121  00000+0  16933-3 0  9998
2 60382  88.9723 290.7386 0012036 321.8909  38.1390 13.50999661 78421
QIANFAN-5               
1 60383U 24140E   26063.15054175  .00000097  00000+0  13099-3 0  9996
2 60383  88.9698 290.8406 0014814 342.7825  17.2822 13.51001640 78297
QIANFAN-6               
1 60384U 24140F   26063.09705501  .00000114  00000+0  15758-3 0  9990
2 60384  88.9724 290.6142 0012306 328.1457  31.8948 13.51001433 78488
QIANFAN-7               
1 60385U 24140G   26063.11529358  .00000449  00000+0  17560-3 0  9992
2 60385  88.9736 284.1663 0016459 127.6259 232.6432 14.27771457 82009
QIANFAN-8               
1 60386U 24140H   26063.10527551  .00000111  00000+0  15367-3 0  9994
2 60386  88.9726 290.8521 0015807 328.8247  31.1965 13.51002931 78338
QIANFAN-9               
1 60387U 24140J   26063.15463943  .00000096  00000+0  13082-3 0  9998
2 60387  88.9724 290.9207 0015502 328.5473  31.4750 13.50997742 78325
QIANFAN-10              
1 60388U 24140K   26063.15863422  .00000107  00000+0  14768-3 0  9990
2 60388  88.9733 290.2752 0013358 304.8522  55.1372 13.50996187 78452
QIANFAN-11              
1 60389U 24140L   26063.12175395  .00000102  00000+0  13898-3 0  9991
2 60389  88.9660 290.8057 0013526 329.2423  30.7934 13.51002960 78107
QIANFAN-12              
1 60390U 24140M   26063.14232820  .00000115  00000+0  15923-3 0  9997
2 60390  88.9703 290.8824 0012610 338.3731  21.6886 13.51000686 78237
QIANFAN-13              
1 60391U 24140N   26063.11349980  .00000116  00000+0  16104-3 0  9994
2 60391  88.9715 290.9954 0012523 341.2965  18.7724 13.51001118 78252
QIANFAN-14              
1 60392U 24140P   26063.13811906  .00000122  00000+0  16982-3 0  9990
2 60392  88.9694 290.8730 0016176 339.3185  20.7310 13.51000974 78264
QIANFAN-15              
1 60393U 24140Q   26063.14649066  .00000112  00000+0  15452-3 0  9998
2 60393  88.9717 290.8480 0011571 327.0925  32.9504 13.50998869 78250
QIANFAN-16              
1 60394U 24140R   26063.13398607  .00000119  00000+0  16577-3 0  9996
2 60394  88.9721 290.9718 0014242 344.2680  15.8027 13.50997441 78163
QIANFAN-17              
1 60395U 24140S   26063.12998668  .00000114  00000+0  15845-3 0  9991
2 60395  88.9732 291.0271 0014440 337.5885  22.4633 13.51004197 79126
